OBJECT_NAME,OBJECT_ID,EPOCH,MEAN_MOTION,ECCENTRICITY,INCLINATION,RA_OF_ASC_NODE,ARG_OF_PERICENTER,MEAN_ANOMALY,EPHEMERIS_TYPE,CLASSIFICATION_TYPE,NORAD_CAT_ID,ELEMENT_SET_NO,REV_AT_EPOCH,BSTAR,MEAN_MOTION_DOT,MEAN_MOTION_DDOT
SWARM A,2013-067B,2026-07-06T19:58:11.682624,15.51343056,.0003255,87.3308,48.9384,96.2937,263.8695,0,U,39452,999,70929,.13844E-3,.8174E-4,0
SWARM C,2013-067C,2026-07-06T19:58:03.260352,15.51342274,.0003251,87.3308,47.5194,96.2818,263.8813,0,U,39453,999,70925,.13755E-3,.8121E-4,0
BRITE-CA1 (TORONTO),2014-033L,2026-07-06T14:32:12.536160,14.72710951,.0077829,97.9763,316.1784,213.9093,145.7126,0,U,40020,999,64507,.15907E-3,.101E-4,0
OCO 2,2014-035A,2026-07-06T17:25:44.152608,14.57127587,.000148,98.2019,128.7221,82.2423,277.8943,0,U,40059,999,63889,.9308E-4,.374E-5,0
BRITE-PL2 (HEWELIUSZ),2014-049B,2026-07-06T20:31:05.653056,14.94667012,.0014891,97.9109,300.0087,49.1461,311.1047,0,U,40119,999,64438,.19243E-3,.2031E-4,0
MMS 1,2015-011A,2026-07-06T22:00:03.000096,0.28337041,.8313203,72.5217,348.5486,167.9082,151.2690,0,U,40482,999,133,0,-.664E-5,0
MMS 2,2015-011B,2026-07-06T20:00:01.999008,0.28339498,.8317072,72.5348,348.5459,167.9086,142.7658,0,U,40483,999,133,0,-.666E-5,0
MMS 3,2015-011C,2026-07-06T20:00:01.999008,0.28339488,.8315447,72.5346,348.5578,167.9161,142.7402,0,U,40484,999,130,0,-.665E-5,0
MMS 4,2015-011D,2026-07-06T20:00:01.999008,0.28339532,.8315377,72.5304,348.5412,167.9259,142.7341,0,U,40485,999,136,0,-.666E-5,0
ASTROSAT,2015-052A,2026-07-06T01:29:49.803072,14.82542388,.0008506,5.9982,19.4758,302.4435,57.4871,0,U,40930,999,58263,.13877E-3,.1814E-4,0
DAMPE,2015-078A,2026-07-06T20:15:08.430912,15.30839717,.001249,97.4562,193.4077,14.8156,345.3448,0,U,41173,999,58755,.5458E-4,.1551E-4,0
PISAT,2016-059B,2026-07-06T13:21:44.482176,14.69019012,.0029947,97.8185,187.1776,141.2876,219.0484,0,U,41784,999,52258,.17079E-3,.961E-5,0
HXMT (HUIYAN),2017-034A,2026-07-06T20:48:30.748320,15.18636573,.0032771,43.0141,73.4464,270.0489,89.6604,0,U,42758,999,50065,.16671E-3,.3318E-4,0
FLYING LAPTOP,2017-042G,2026-07-06T20:22:08.622624,15.01277851,.001997,97.4781,342.6366,58.8580,301.4600,0,U,42831,999,48940,.28409E-3,.361E-4,0
ZHANGHENG 1-01 (CSES-1),2018-015C,2026-07-06T21:01:47.409888,15.21085246,.0018075,97.6891,353.9298,194.3913,165.6809,0,U,43194,999,46763,.2887E-3,.6372E-4,0
SALSAT,2020-068K,2026-07-06T13:41:31.479072,15.30088375,.0008365,97.8859,191.8188,225.6933,134.3621,0,U,46495,999,31832,.2235E-3,.6429E-4,0
IXPE,2021-121A,2026-07-06T20:00:01.999008,15.10439711,.0007259,0.2290,169.0034,14.1445,137.6230,0,U,49954,999,567,.55775E-3,.10386E-3,0
SMILE,2026-109A,2026-06-07T09:11:54.544416,7.54049028,.3310191,69.9787,209.3069,288.5544,45.7342,0,U,69123,999,248,-.36778157E-3,-.41E-6,0
